[
    {
        "Altitude(m)": 610399.5039609843,
        "Argument of Periapsis(deg)": 0.0,
        "Eccentricity": 0.0,
        "Inclination(deg)": 60.0,
        "Latitude(deg)": 52.11126631394685,
        "Longitude(deg)": -107.4156532759097,
        "Mean Anomaly(deg)": -294.5455,
        "RAAN(deg)": 305.0,
        "Satellite Name": "Test1 1346",
        "Satellite Number": 1346,
        "Semi-Major Axis(m)": 6980739.136638005,
        "Time(s)": 0
    },
    {
        "Altitude(m)": 610481.6549722616,
        "Argument of Periapsis(deg)": 0.00010418945913296404,
        "Eccentricity": 0.0,
        "Inclination(deg)": 60.0,
        "Latitude(deg)": 52.470868142738006,
        "Longitude(deg)": -106.63351773986945,
        "Mean Anomaly(deg)": -293.9253938545382,
        "RAAN(deg)": 304.99957995086027,
        "Satellite Name": "Test1 1346",
        "Satellite Number": 1346,
        "Semi-Major Axis(m)": 6980739.136638005,
        "Time(s)": 10
    }
]